start=new Date('2023-03-25T00:00:00.000Z').valueOf();
sats=[{"ELEMENT_SET_NO":"999","MEAN_ELEMENT_THEORY":"SGP4","TLE_LINE1":"1 53293U 22086BD  23083.91363866 -.00000893  00000-0 -38003-4 0  9998","MEAN_MOTION":"15.08862533","EPHEMERIS_TYPE":"0","CLASSIFICATION_TYPE":"U","CENTER_NAME":"EARTH","FILE":"3870109","RA_OF_ASC_NODE":"345.9087","APOAPSIS":"540.493","REF_FRAME":"TEME","NORAD_CAT_ID":"53293","REV_AT_EPOCH":"3816","MEAN_MOTION_DDOT":"0.0000000000000","RCS_SIZE":"LARGE","SEMIMAJOR_AXIS":"6917.812","COUNTRY_CODE":"US","EPOCH":"2023-03-24T21:55:38.380224","ECCENTRICITY":"0.00011800","OBJECT_TYPE":"PAYLOAD","OBJECT_ID":"2022-086BD","TIME_SYSTEM":"UTC","PERIOD":"95.436","MEAN_MOTION_DOT":"-0.00000893","PERIAPSIS":"538.860","TLE_LINE2":"2 53293  53.2179 345.9087 0001180  74.7864 285.3259 15.08862533 38166","MEAN_ANOMALY":"285.3259","ARG_OF_PERICENTER":"74.7864","DECAY_DATE":null,"GP_ID":"228823610","OBJECT_NAME":"STARLINK-4148","INCLINATION":"53.2179","BSTAR":"-0.00003800300000","LAUNCH_DATE":"2022-07-24","SITE":"AFETR"},{"ELEMENT_SET_NO":"999","MEAN_ELEMENT_THEORY":"SGP4","TLE_LINE1":"1 53294U 22086BE  23083.93107082  .00022163  00000-0  14054-2 0  9997","MEAN_MOTION":"15.08862422","EPHEMERIS_TYPE":"0","CLASSIFICATION_TYPE":"U","CENTER_NAME":"EARTH","FILE":"3870109","RA_OF_ASC_NODE":"345.6747","APOAPSIS":"540.562","NORAD_CAT_ID":"53294","REF_FRAME":"TEME","MEAN_MOTION_DDOT":"0.0000000000000","REV_AT_EPOCH":"3821","RCS_SIZE":"LARGE","SEMIMAJOR_AXIS":"6917.812","COUNTRY_CODE":"US","ECCENTRICITY":"0.00012800","EPOCH":"2023-03-24T22:20:44.518848","OBJECT_ID":"2022-086BE","OBJECT_TYPE":"PAYLOAD","TIME_SYSTEM":"UTC","PERIOD":"95.436","TLE_LINE2":"2 53294  53.2160 345.6747 0001280 117.4458 242.6664 15.08862422 38211","PERIAPSIS":"538.791","MEAN_MOTION_DOT":"0.00022163","MEAN_ANOMALY":"242.6664","ARG_OF_PERICENTER":"117.4458","DECAY_DATE":null,"OBJECT_NAME":"STARLINK-4146","GP_ID":"228823361","INCLINATION":"53.2160","BSTAR":"0.00140540000000","SITE":"AFETR","LAUNCH_DATE":"2022-07-24"},{"BSTAR":"0.00133430000000","GP_ID":"228824617","OBJECT_NAME":"STARLINK-4522","INCLINATION":"53.2137","LAUNCH_DATE":"2022-08-10","SITE":"AFETR","DECAY_DATE":null,"ARG_OF_PERICENTER":"101.4447","PERIOD":"95.435","MEAN_ANOMALY":"258.6680","PERIAPSIS":"538.767","MEAN_MOTION_DOT":"0.00021039","TLE_LINE2":"2 53388  53.2137 296.0496 0001204 101.4447 258.6680 15.08887637 35684","TIME_SYSTEM":"UTC","COUNTRY_CODE":"US","SEMIMAJOR_AXIS":"6917.735","RCS_SIZE":"LARGE","OBJECT_TYPE":"PAYLOAD","OBJECT_ID":"2022-097A","EPOCH":"2023-03-24T21:13:11.333280","ECCENTRICITY":"0.00012040","RA_OF_ASC_NODE":"296.0496","APOAPSIS":"540.433","FILE":"3870109","REV_AT_EPOCH":"3568","MEAN_MOTION_DDOT":"0.0000000000000","REF_FRAME":"TEME","NORAD_CAT_ID":"53388","CLASSIFICATION_TYPE":"U","CENTER_NAME":"EARTH","TLE_LINE1":"1 53388U 22097A   23083.88415895  .00021039  00000-0  13343-2 0  9992","MEAN_ELEMENT_THEORY":"SGP4","ELEMENT_SET_NO":"999","EPHEMERIS_TYPE":"0","MEAN_MOTION":"15.08887637"},{"OBJECT_TYPE":"PAYLOAD","OBJECT_ID":"2022-097B","EPOCH":"2023-03-24T21:02:35.317824","ECCENTRICITY":"0.00012560","COUNTRY_CODE":"US","RCS_SIZE":"LARGE","SEMIMAJOR_AXIS":"6917.755","REV_AT_EPOCH":"3550","MEAN_MOTION_DDOT":"0.0000000000000","REF_FRAME":"TEME","NORAD_CAT_ID":"53389","APOAPSIS":"540.489","RA_OF_ASC_NODE":"296.0801","FILE":"3870109","CENTER_NAME":"EARTH","CLASSIFICATION_TYPE":"U","EPHEMERIS_TYPE":"0","MEAN_MOTION":"15.08881005","TLE_LINE1":"1 53389U 22097B   23083.87679766  .00011928  00000-0  76543-3 0  9999","ELEMENT_SET_NO":"999","MEAN_ELEMENT_THEORY":"SGP4","LAUNCH_DATE":"2022-08-10","SITE":"AFETR","BSTAR":"0.00076543000000","OBJECT_NAME":"STARLINK-4523","GP_ID":"228824362","INCLINATION":"53.2138","ARG_OF_PERICENTER":"73.0880","DECAY_DATE":null,"MEAN_ANOMALY":"287.0250","MEAN_MOTION_DOT":"0.00011928","PERIAPSIS":"538.751","TLE_LINE2":"2 53389  53.2138 296.0801 0001256  73.0880 287.0250 15.08881005 35501","PERIOD":"95.435","TIME_SYSTEM":"UTC"},{"TLE_LINE1":"1 53390U 22097C   23083.88047735  .00023757  00000-0  15034-2 0  9997","MEAN_ELEMENT_THEORY":"SGP4","ELEMENT_SET_NO":"999","EPHEMERIS_TYPE":"0","MEAN_MOTION":"15.08897594","CLASSIFICATION_TYPE":"U","CENTER_NAME":"EARTH","APOAPSIS":"540.403","RA_OF_ASC_NODE":"296.0654","FILE":"3870109","REV_AT_EPOCH":"3565","MEAN_MOTION_DDOT":"0.0000000000000","REF_FRAME":"TEME","NORAD_CAT_ID":"53390","COUNTRY_CODE":"US","SEMIMAJOR_AXIS":"6917.704","RCS_SIZE":"LARGE","OBJECT_TYPE":"PAYLOAD","OBJECT_ID":"2022-097C","EPOCH":"2023-03-24T21:07:53.243040","ECCENTRICITY":"0.00012050","TIME_SYSTEM":"UTC","PERIOD":"95.434","MEAN_ANOMALY":"282.3439","PERIAPSIS":"538.736","MEAN_MOTION_DOT":"0.00023757","TLE_LINE2":"2 53390  53.2134 296.0654 0001205  77.7688 282.3439 15.08897594 35659","DECAY_DATE":null,"ARG_OF_PERICENTER":"77.7688","BSTAR":"0.00150340000000","OBJECT_NAME":"STARLINK-4517","GP_ID":"228823116","INCLINATION":"53.2134","LAUNCH_DATE":"2022-08-10","SITE":"AFETR"},{"TIME_SYSTEM":"UTC","PERIOD":"95.434","MEAN_ANOMALY":"273.2849","PERIAPSIS":"538.717","MEAN_MOTION_DOT":"0.00020780","TLE_LINE2":"2 53391  53.2137 296.1013 0001247  86.8286 273.2849 15.08894121 35505","ARG_OF_PERICENTER":"86.8286","DECAY_DATE":null,"BSTAR":"0.00131790000000","INCLINATION":"53.2137","GP_ID":"228823866","OBJECT_NAME":"STARLINK-4521","LAUNCH_DATE":"2022-08-10","SITE":"AFETR","TLE_LINE1":"1 53391U 22097D   23083.87311882  .00020780  00000-0  13179-2 0  9995","ELEMENT_SET_NO":"999","MEAN_ELEMENT_THEORY":"SGP4","MEAN_MOTION":"15.08894121","EPHEMERIS_TYPE":"0","CLASSIFICATION_TYPE":"U","CENTER_NAME":"EARTH","APOAPSIS":"540.443","RA_OF_ASC_NODE":"296.1013","FILE":"3870109","MEAN_MOTION_DDOT":"0.0000000000000","REV_AT_EPOCH":"3550","REF_FRAME":"TEME","NORAD_CAT_ID":"53391","COUNTRY_CODE":"US","RCS_SIZE":"LARGE","SEMIMAJOR_AXIS":"6917.715","OBJECT_TYPE":"PAYLOAD","OBJECT_ID":"2022-097D","EPOCH":"2023-03-24T20:57:17.466048","ECCENTRICITY":"0.00012470"},{"SITE":"AFETR","LAUNCH_DATE":"2022-08-10","GP_ID":"228824118","INCLINATION":"53.2131","OBJECT_NAME":"STARLINK-4535","BSTAR":"0.00109300000000","ARG_OF_PERICENTER":"94.2468","DECAY_DATE":null,"TLE_LINE2":"2 53392  53.2131 296.1292 0001295  94.2468 265.8672 15.08878942 35501","MEAN_MOTION_DOT":"0.00017168","PERIAPSIS":"538.731","MEAN_ANOMALY":"265.8672","PERIOD":"95.435","TIME_SYSTEM":"UTC","ECCENTRICITY":"0.00012950","EPOCH":"2023-03-24T20:46:41.849760","OBJECT_ID":"2022-097E","OBJECT_TYPE":"PAYLOAD","RCS_SIZE":"LARGE","SEMIMAJOR_AXIS":"6917.761","COUNTRY_CODE":"US","NORAD_CAT_ID":"53392","REF_FRAME":"TEME","REV_AT_EPOCH":"3550","MEAN_MOTION_DDOT":"0.0000000000000","FILE":"3870109","RA_OF_ASC_NODE":"296.1292","APOAPSIS":"540.522","CENTER_NAME":"EARTH","CLASSIFICATION_TYPE":"U","MEAN_MOTION":"15.08878942","EPHEMERIS_TYPE":"0","MEAN_ELEMENT_THEORY":"SGP4","ELEMENT_SET_NO":"999","TLE_LINE1":"1 53392U 22097E   23083.86576215  .00017168  00000-0  10930-2 0  9996"},{"PERIOD":"95.435","PERIAPSIS":"538.770","MEAN_MOTION_DOT":"0.00012975","TLE_LINE2":"2 53393  53.2145 296.1110 0001265  84.7065 275.4072 15.08872944 35507","MEAN_ANOMALY":"275.4072","TIME_SYSTEM":"UTC","INCLINATION":"53.2145","GP_ID":"228824861","OBJECT_NAME":"STARLINK-4530","BSTAR":"0.00083109000000","LAUNCH_DATE":"2022-08-10","SITE":"AFETR","DECAY_DATE":null,"ARG_OF_PERICENTER":"84.7065","CLASSIFICATION_TYPE":"U","CENTER_NAME":"EARTH","ELEMENT_SET_NO":"999","MEAN_ELEMENT_THEORY":"SGP4","TLE_LINE1":"1 53393U 22097F   23083.86944339  .00012975  00000-0  83109-3 0  9993","MEAN_MOTION":"15.08872944","EPHEMERIS_TYPE":"0","RCS_SIZE":"LARGE","SEMIMAJOR_AXIS":"6917.780","COUNTRY_CODE":"US","EPOCH":"2023-03-24T20:51:59.908896","ECCENTRICITY":"0.00012650","OBJECT_TYPE":"PAYLOAD","OBJECT_ID":"2022-097F","FILE":"3870109","RA_OF_ASC_NODE":"296.1110","APOAPSIS":"540.520","REF_FRAME":"TEME","NORAD_CAT_ID":"53393","MEAN_MOTION_DDOT":"0.0000000000000","REV_AT_EPOCH":"3550"},{"OBJECT_ID":"2022-097G","OBJECT_TYPE":"PAYLOAD","ECCENTRICITY":"0.00013230","EPOCH":"2023-03-24T19:56:22.219008","COUNTRY_CODE":"US","SEMIMAJOR_AXIS":"6917.740","RCS_SIZE":"LARGE","REV_AT_EPOCH":"3564","MEAN_MOTION_DDOT":"0.0000000000000","NORAD_CAT_ID":"53394","REF_FRAME":"TEME","RA_OF_ASC_NODE":"286.0598","APOAPSIS":"540.520","FILE":"3870109","CENTER_NAME":"EARTH","CLASSIFICATION_TYPE":"U","MEAN_MOTION":"15.08885876","EPHEMERIS_TYPE":"0","TLE_LINE1":"1 53394U 22097G   23083.83081272  .00014281  00000-0  91244-3 0  9990","ELEMENT_SET_NO":"999","MEAN_ELEMENT_THEORY":"SGP4","SITE":"AFETR","LAUNCH_DATE":"2022-08-10","BSTAR":"0.00091244000000","OBJECT_NAME":"STARLINK-4544","GP_ID":"228823616","INCLINATION":"53.2147","DECAY_DATE":null,"ARG_OF_PERICENTER":"87.3987","MEAN_ANOMALY":"272.7156","TLE_LINE2":"2 53394  53.2147 286.0598 0001323  87.3987 272.7156 15.08885876 35641","MEAN_MOTION_DOT":"0.00014281","PERIAPSIS":"538.690","PERIOD":"95.435","TIME_SYSTEM":"UTC"},{"FILE":"3870109","RA_OF_ASC_NODE":"296.1400","APOAPSIS":"540.501","NORAD_CAT_ID":"53395","REF_FRAME":"TEME","REV_AT_EPOCH":"3534","MEAN_MOTION_DDOT":"0.0000000000000","SEMIMAJOR_AXIS":"6917.754","RCS_SIZE":"LARGE","COUNTRY_CODE":"US","ECCENTRICITY":"0.00012750","EPOCH":"2023-03-24T20:41:24.046368","OBJECT_ID":"2022-097H","OBJECT_TYPE":"PAYLOAD","ELEMENT_SET_NO":"999","MEAN_ELEMENT_THEORY":"SGP4","TLE_LINE1":"1 53395U 22097H   23083.86208387  .00017434  00000-0  11095-2 0  9990","EPHEMERIS_TYPE":"0","MEAN_MOTION":"15.08881352","CLASSIFICATION_TYPE":"U","CENTER_NAME":"EARTH","DECAY_DATE":null,"ARG_OF_PERICENTER":"84.0731","GP_ID":"228823367","INCLINATION":"53.2149","OBJECT_NAME":"STARLINK-4534","BSTAR":"0.00110950000000","SITE":"AFETR","LAUNCH_DATE":"2022-08-10","TIME_SYSTEM":"UTC","PERIOD":"95.435","TLE_LINE2":"2 53395  53.2149 296.1400 0001275  84.0731 276.0406 15.08881352 35342","PERIAPSIS":"538.737","MEAN_MOTION_DOT":"0.00017434","MEAN_ANOMALY":"276.0406"}];
